{"type": "FeatureCollection", "features": [ {"type": "Feature", "properties": {"norad_id": 40534, "name": "GPS BIIF-9  (PRN 26)", "group": "gps-ops", "lat": 38.290816194805416, "lon": -4.912792207275592, "alt_km": 20176.647048109724, "timestamp": "2025-12-26T17:24:54.978286+00:00", "meta": {"OBJECT_NAME": "GPS BIIF-9  (PRN 26)", "OBJECT_ID": "2015-013A", "EPOCH": "2025-12-26T01:13:12.990720", "MEAN_MOTION": 2.00561708, "ECCENTRICITY": 0.01075321, "INCLINATION": 53.196, "RA_OF_ASC_NODE": 211.3389, "ARG_OF_PERICENTER": 38.7958, "MEAN_ANOMALY": 322.0404, "EPHEMERIS_TYPE": 0, "CLASSIFICATION_TYPE": "U", "NORAD_CAT_ID": 40534, "ELEMENT_SET_NO": 999, "REV_AT_EPOCH": 7835, "BSTAR": 0, "MEAN_MOTION_DOT": 8.5e-07, "MEAN_MOTION_DDOT": 0}, "tle": {"line1": "1 40534U 15013A   25360.05084480  .00000085  00000+0  00000+0 0  9992", "line2": "2 40534  53.1960 211.3389 0107532  38.7958 322.0404  2.00561708 78354"}}, "geometry": {"type": "Point", "coordinates": [-4.912792207275592, 38.290816194805416]}}, {"type": "Feature", "properties": {"norad_id": 40730, "name": "GPS BIIF-10 (PRN 08)", "group": "gps-ops", "lat": 8.935261871361773, "lon": -79.27880230674933, "alt_km": 19895.718584119277, "timestamp": "2025-12-26T17:24:54.978297+00:00", "meta": {"OBJECT_NAME": "GPS BIIF-10 (PRN 08)", "OBJECT_ID": "2015-033A", "EPOCH": "2025-12-24T17:11:33.292320", "MEAN_MOTION": 2.00564999, "ECCENTRICITY": 0.0111668, "INCLINATION": 54.1203, "RA_OF_ASC_NODE": 274.2801, "ARG_OF_PERICENTER": 27.125, "MEAN_ANOMALY": 333.5048, "EPHEMERIS_TYPE": 0, "CLASSIFICATION_TYPE": "U", "NORAD_CAT_ID": 40730, "ELEMENT_SET_NO": 999, "REV_AT_EPOCH": 7649, "BSTAR": 0, "MEAN_MOTION_DOT": -1.6e-07, "MEAN_MOTION_DDOT": 0}, "tle": {"line1": "1 40730U 15033A   25358.71635755 -.00000016  00000+0  00000+0 0  9994", "line2": "2 40730  54.1203 274.2801 0111668  27.1250 333.5048  2.00564999 76491"}}, "geometry": {"type": "Point", "coordinates": [-79.27880230674933, 8.935261871361773]}}, {"type": "Feature", "properties": {"norad_id": 41019, "name": "GPS BIIF-11 (PRN 10)", "group": "gps-ops", "lat": -26.15358026302054, "lon": 18.75958195630133, "alt_km": 20222.747773000458, "timestamp": "2025-12-26T17:24:54.978308+00:00", "meta": {"OBJECT_NAME": "GPS BIIF-11 (PRN 10)", "OBJECT_ID": "2015-062A", "EPOCH": "2025-12-26T06:30:53.632512", "MEAN_MOTION": 2.00567029, "ECCENTRICITY": 0.01111286, "INCLINATION": 56.842, "RA_OF_ASC_NODE": 37.479, "ARG_OF_PERICENTER": 230.2895, "MEAN_ANOMALY": 128.7854, "EPHEMERIS_TYPE": 0, "CLASSIFICATION_TYPE": "U", "NORAD_CAT_ID": 41019, "ELEMENT_SET_NO": 999, "REV_AT_EPOCH": 7436, "BSTAR": 0, "MEAN_MOTION_DOT": -4.9e-07, "MEAN_MOTION_DDOT": 0}, "tle": {"line1": "1 41019U 15062A   25360.27145408 -.00000049  00000+0  00000+0 0  9998", "line2": "2 41019  56.8420  37.4790 0111128 230.2895 128.7854  2.00567029 74361"}}, "geometry": {"type": "Point", "coordinates": [18.75958195630133, -26.15358026302054]}}, {"type": "Feature", "properties": {"norad_id": 41328, "name": "GPS BIIF-12 (PRN 32)", "group": "gps-ops", "lat": -55.358548324183374, "lon": 2.067969675466325, "alt_km": 19962.417774128662, "timestamp": "2025-12-26T17:24:54.978336+00:00", "meta": {"OBJECT_NAME": "GPS BIIF-12 (PRN 32)", "OBJECT_ID": "2016-007A", "EPOCH": "2025-12-25T20:32:16.174464", "MEAN_MOTION": 2.00559967, "ECCENTRICITY": 0.00928247, "INCLINATION": 55.4133, "RA_OF_ASC_NODE": 96.3364, "ARG_OF_PERICENTER": 243.9276, "MEAN_ANOMALY": 115.1304, "EPHEMERIS_TYPE": 0, "CLASSIFICATION_TYPE": "U", "NORAD_CAT_ID": 41328, "ELEMENT_SET_NO": 999, "REV_AT_EPOCH": 7236, "BSTAR": 0, "MEAN_MOTION_DOT": 1.1e-07, "MEAN_MOTION_DDOT": 0}, "tle": {"line1": "1 41328U 16007A   25359.85574276  .00000011  00000+0  00000+0 0  9990", "line2": "2 41328  55.4133  96.3364 0092824 243.9276 115.1304  2.00559967 72366"}}, "geometry": {"type": "Point", "coordinates": [2.067969675466325, -55.358548324183374]}}, {"type": "Feature", "properties": {"norad_id": 43873, "name": "GPS BIII-1  (PRN 04)", "group": "gps-ops", "lat": 15.379702229227696, "lon": -91.86116423373952, "alt_km": 20098.64927447591, "timestamp": "2025-12-26T17:24:54.978348+00:00", "meta": {"OBJECT_NAME": "GPS BIII-1  (PRN 04)", "OBJECT_ID": "2018-109A", "EPOCH": "2025-12-24T12:17:00.757248", "MEAN_MOTION": 2.00553945, "ECCENTRICITY": 0.00376159, "INCLINATION": 55.5731, "RA_OF_ASC_NODE": 99.0827, "ARG_OF_PERICENTER": 195.5593, "MEAN_ANOMALY": 167.4766, "EPHEMERIS_TYPE": 0, "CLASSIFICATION_TYPE": "U", "NORAD_CAT_ID": 43873, "ELEMENT_SET_NO": 999, "REV_AT_EPOCH": 5157, "BSTAR": 0, "MEAN_MOTION_DOT": 1.7e-07, "MEAN_MOTION_DDOT": 0}, "tle": {"line1": "1 43873U 18109A   25358.51181432  .00000017  00000+0  00000+0 0  9998", "line2": "2 43873  55.5731  99.0827 0037615 195.5593 167.4766  2.00553945 51575"}}, "geometry": {"type": "Point", "coordinates": [-91.86116423373952, 15.379702229227696]}}, {"type": "Feature", "properties": {"norad_id": 44506, "name": "GPS BIII-2  (PRN 18)", "group": "gps-ops", "lat": 44.83858889669098, "lon": 20.682226877786096, "alt_km": 20293.67803486757, "timestamp": "2025-12-26T17:24:54.978360+00:00", "meta": {"OBJECT_NAME": "GPS BIII-2  (PRN 18)", "OBJECT_ID": "2019-056A", "EPOCH": "2025-12-26T04:52:46.864416", "MEAN_MOTION": 2.00566478, "ECCENTRICITY": 0.00577783, "INCLINATION": 55.7164, "RA_OF_ASC_NODE": 338.0189, "ARG_OF_PERICENTER": 198.675, "MEAN_ANOMALY": 203.194, "EPHEMERIS_TYPE": 0, "CLASSIFICATION_TYPE": "U", "NORAD_CAT_ID": 44506, "ELEMENT_SET_NO": 999, "REV_AT_EPOCH": 4660, "BSTAR": 0, "MEAN_MOTION_DOT": -5.8e-07, "MEAN_MOTION_DDOT": 0}, "tle": {"line1": "1 44506U 19056A   25360.20332019 -.00000058  00000+0  00000+0 0  9998", "line2": "2 44506  55.7164 338.0189 0057778 198.6750 203.1940  2.00566478 46604"}}, "geometry": {"type": "Point", "coordinates": [20.682226877786096, 44.83858889669098]}}, {"type": "Feature", "properties": {"norad_id": 45854, "name": "GPS BIII-3  (PRN 23)", "group": "gps-ops", "lat": 2.5183630762189333, "lon": 37.32024342556318, "alt_km": 20332.88802530317, "timestamp": "2025-12-26T17:24:54.978371+00:00", "meta": {"OBJECT_NAME": "GPS BIII-3  (PRN 23)", "OBJECT_ID": "2020-041A", "EPOCH": "2025-12-26T05:40:05.983968", "MEAN_MOTION": 2.00561528, "ECCENTRICITY": 0.00606816, "INCLINATION": 56.556, "RA_OF_ASC_NODE": 35.6606, "ARG_OF_PERICENTER": 203.8008, "MEAN_ANOMALY": 165.623, "EPHEMERIS_TYPE": 0, "CLASSIFICATION_TYPE": "U", "NORAD_CAT_ID": 45854, "ELEMENT_SET_NO": 999, "REV_AT_EPOCH": 4057, "BSTAR": 0, "MEAN_MOTION_DOT": -5e-07, "MEAN_MOTION_DDOT": 0}, "tle": {"line1": "1 45854U 20041A   25360.23618037 -.00000050  00000+0  00000+0 0  9993", "line2": "2 45854  56.5560  35.6606 0060681 203.8008 165.6230  2.00561528 40571"}}, "geometry": {"type": "Point", "coordinates": [37.32024342556318, 2.5183630762189333]}}, {"type": "Feature", "properties": {"norad_id": 46826, "name": "GPS BIII-4  (PRN 14)", "group": "gps-ops", "lat": -20.233449629616956, "lon": -157.74998469623043, "alt_km": 20297.1335339848, "timestamp": "2025-12-26T17:24:54.978383+00:00", "meta": {"OBJECT_NAME": "GPS BIII-4  (PRN 14)", "OBJECT_ID": "2020-078A", "EPOCH": "2025-12-16T01:06:13.902336", "MEAN_MOTION": 2.00566891, "ECCENTRICITY": 0.0064754, "INCLINATION": 54.0144, "RA_OF_ASC_NODE": 218.2068, "ARG_OF_PERICENTER": 203.3802, "MEAN_ANOMALY": 339.3962, "EPHEMERIS_TYPE": 0, "CLASSIFICATION_TYPE": "U", "NORAD_CAT_ID": 46826, "ELEMENT_SET_NO": 999, "REV_AT_EPOCH": 3783, "BSTAR": 0, "MEAN_MOTION_DOT": 6.7e-07, "MEAN_MOTION_DDOT": 0}, "tle": {"line1": "1 46826U 20078A   25350.04599424  .00000067  00000+0  00000+0 0  9996", "line2": "2 46826  54.0144 218.2068 0064754 203.3802 339.3962  2.00566891 37830"}}, "geometry": {"type": "Point", "coordinates": [-157.74998469623043, -20.233449629616956]}}, {"type": "Feature", "properties": {"norad_id": 48859, "name": "GPS BIII-5  (PRN 11)", "group": "gps-ops", "lat": 17.48911304214276, "lon": 146.75098030460782, "alt_km": 20164.386021928396, "timestamp": "2025-12-26T17:24:54.978394+00:00", "meta": {"OBJECT_NAME": "GPS BIII-5  (PRN 11)", "OBJECT_ID": "2021-054A", "EPOCH": "2025-12-08T04:14:32.423424", "MEAN_MOTION": 2.00553627, "ECCENTRICITY": 0.0024678, "INCLINATION": 55.2581, "RA_OF_ASC_NODE": 340.1367, "ARG_OF_PERICENTER": 233.3993, "MEAN_ANOMALY": 212.8594, "EPHEMERIS_TYPE": 0, "CLASSIFICATION_TYPE": "U", "NORAD_CAT_ID": 48859, "ELEMENT_SET_NO": 999, "REV_AT_EPOCH": 3292, "BSTAR": 0, "MEAN_MOTION_DOT": -8.6e-07, "MEAN_MOTION_DDOT": 0}, "tle": {"line1": "1 48859U 21054A   25342.17676416 -.00000086  00000+0  00000+0 0  9993", "line2": "2 48859  55.2581 340.1367 0024678 233.3993 212.8594  2.00553627 32922"}}, "geometry": {"type": "Point", "coordinates": [146.75098030460782, 17.48911304214276]}}, {"type": "Feature", "properties": {"norad_id": 55268, "name": "GPS BIII-6  (PRN 28)", "group": "gps-ops", "lat": -17.379116641383806, "lon": -12.09684828900134, "alt_km": 20194.308923918306, "timestamp": "2025-12-26T17:24:54.978405+00:00", "meta": {"OBJECT_NAME": "GPS BIII-6  (PRN 28)", "OBJECT_ID": "2023-009A", "EPOCH": "2025-12-22T10:59:58.065216", "MEAN_MOTION": 2.00554901, "ECCENTRICITY": 0.00037047, "INCLINATION": 55.1065, "RA_OF_ASC_NODE": 155.4638, "ARG_OF_PERICENTER": 355.7912, "MEAN_ANOMALY": 4.4255, "EPHEMERIS_TYPE": 0, "CLASSIFICATION_TYPE": "U", "NORAD_CAT_ID": 55268, "ELEMENT_SET_NO": 999, "REV_AT_EPOCH": 2170, "BSTAR": 0, "MEAN_MOTION_DOT": 7.4e-07, "MEAN_MOTION_DDOT": 0}, "tle": {"line1": "1 55268U 23009A   25356.45831094  .00000074  00000+0  00000+0 0  9994", "line2": "2 55268  55.1065 155.4638 0003704 355.7912   4.4255  2.00554901 21704"}}, "geometry": {"type": "Point", "coordinates": [-12.09684828900134, -17.379116641383806]}}]}